GLOBALSTAR M001         
1 25162U 98008A   24187.91370199 -.00000093  00000+0  27540-4 0  9996
2 25162  52.0032 261.0651 0001730 224.8400 307.3769 12.38187528200813
GLOBALSTAR M004         
1 25163U 98008B   24188.12864741 -.00000027  00000+0  42396-3 0  9994
2 25163  52.0014  29.8697 0002188 234.7502 279.2321 12.63364454218043
GLOBALSTAR M002         
1 25164U 98008C   24187.86938363 -.00000066  00000+0  21541-3 0  9999
2 25164  52.0034  28.5331 0000617 202.6923 157.3870 11.61502810143828
GLOBALSTAR M003         
1 25165U 98008D   24187.91460573  .00000057  00000+0  15575-2 0  9997
2 25165  51.9904  47.5556 0007580 321.0518  52.2882 12.12016300191230
GLOBALSTAR M014         
1 25306U 98023A   24187.74127052 -.00000065  00000+0  23125-3 0  9995
2 25306  51.9860 319.3641 0001508  99.9754  43.6298 11.65469373150778
GLOBALSTAR M006         
1 25307U 98023B   24188.24234039 -.00000095  00000+0 -40039-3 0  9993
2 25307  51.9961 357.6400 0003729 189.1330 341.8182 11.58163062176858
GLOBALSTAR M015         
1 25308U 98023C   24187.94636229 -.00000149  00000+0 -17256-2 0  9991
2 25308  51.9830  80.9779 0012098 178.9792 265.8120 11.48851427154284
GLOBALSTAR M008         
1 25309U 98023D   24188.23586588 -.00000110  00000+0 -10711-3 0  9995
2 25309  51.9961 121.0354 0002222 158.0056 349.7330 12.36044896195378
